IRIDIUM 155             
1 43573U 18061E   20176.56577599  .00000074  00000-0  19460-4 0  9992
2 43573  86.3982 249.2142 0001752  87.7952 272.3444 14.34216967100377
IRIDIUM 154             
1 43574U 18061F   20176.47698733  .00000071  00000-0  18370-4 0  9993
2 43574  86.3986 249.2813 0002621  92.1652 267.9843 14.34218111100411
IRIDIUM 163             
1 43575U 18061G   20176.45794552  .00000074  00000-0  19458-4 0  9999
2 43575  86.3983 249.2709 0002578 107.9004 252.2473 14.34219360100389
IRIDIUM 156             
1 43576U 18061H   20176.57210350  .00000066  00000-0  16496-4 0  9992
2 43576  86.3983 249.2279 0002092 102.2057 257.9374 14.34219332100391
IRIDIUM 164             
1 43577U 18061J   20176.48332595  .00000074  00000-0  19395-4 0  9999
2 43577  86.3984 249.2721 0002565  95.4738 264.6751 14.34217562100420
IRIDIUM 159             
1 43578U 18061K   20176.45160551  .00000069  00000-0  17512-4 0  9991
2 43578  86.3983 249.2680 0002510  93.4918 266.6565 14.34218099100388
IRIDIUM 180             
1 43922U 19002A   20176.52088497  .00000061  00000-0  14868-4 0  9999
2 43922  86.3987 186.1424 0003461  94.5269 265.6322 14.34217090 76008
IRIDIUM 176             
1 43923U 19002B   20176.56051338  .00000076  00000-0  80881-5 0  9993
2 43923  86.6123 186.1515 0002711  91.4693 268.6835 14.72249741 77978
IRIDIUM 168             
1 43924U 19002C   20176.58429740  .00000048  00000-0  10119-4 0  9997
2 43924  86.3989 186.1313 0002624  88.3742 271.7754 14.34217065 75992
IRIDIUM 173             
1 43925U 19002D   20176.50183679  .00000058  00000-0  13487-4 0  9990
2 43925  86.3986 186.1434 0002528  90.3969 269.7517 14.34219648 75972
IRIDIUM 169             
1 43926U 19002E   20176.54885637  .00000064  00000-0  14269-4 0  9994
2 43926  86.4249 217.6707 0004321 355.3633   4.7525 14.38607088 76288
IRIDIUM 172             
1 43927U 19002F   20176.56526987  .00000057  00000-0  13148-4 0  9994
2 43927  86.3987 186.1181 0002660  90.5906 269.5595 14.34219481 75984
IRIDIUM 175             
1 43928U 19002G   20176.55433205  .00000069  00000-0  70689-5 0  9991
2 43928  86.6107 186.0447 0001813 103.2638 256.8782 14.72249897 77962
IRIDIUM 171             
1 43929U 19002H   20176.54623585  .00000062  00000-0  15043-4 0  9998
2 43929  86.3995 186.1896 0002606  88.1063 272.0431 14.34218774 75976
IRIDIUM 170             
1 43930U 19002J   20176.56667448  .00000073  00000-0  76285-5 0  9996
2 43930  86.6123 186.1559 0002555  97.2365 262.9143 14.72250984 77981
IRIDIUM 167             
1 43931U 19002K   20176.53991151  .00000055  00000-0  12747-4 0  9997
2 43931  86.3987 186.1316 0003317  92.4181 267.7394 14.34217569 75976
